      2.10          N: GNSS NAV DATA                        RINEX VERSION / TYPE
fic2rin                                 02/18/2023 00:17:33 PGM / RUN BY / DATE
                                                            END OF HEADER
7  23  2 17  1 59 44.0  .239613465965D-03 -.704858393874D-11  .000000000000D+00
     .130000000000D+02  .166875000000D+02  .510449833713D-08  .196905172204D+01
     .663101673126D-06  .167403834639D-01  .632368028164D-05  .515358078957D+04
     .439184000000D+06 -.320374965668D-06  .989851701331D+00 -.329688191414D-06
     .950314758824D+00  .254062500000D+03 -.222469115289D+01 -.814676791701D-08
     .251081887140D-09  .100000000000D+01  .224900000000D+04  .000000000000D+00
     .240000000000D+01  .000000000000D+00 -.111758708954D-07  .130000000000D+02
     .432000000000D+06  .400000000000D+01
13 23  2 17 22  0  0.0  .477740075439D-03  .602540239925D-11  .000000000000D+00
     .140000000000D+02 -.496875000000D+02  .401338145916D-08  .226374085883D+01
    -.249966979027D-05  .676430377644D-02  .122264027596D-04  .515367040062D+04
     .511200000000D+06 -.428408384323D-07  .765408452849D-01 -.856816768646D-07
     .969978848678D+00  .148093750000D+03  .933517012639D+00 -.754567145036D-08
     .658956019592D-09  .100000000000D+01  .224900000000D+04  .000000000000D+00
     .240000000000D+01  .000000000000D+00 -.111758708954D-07  .140000000000D+02
     .504000000000D+06  .400000000000D+01
9  23  2 17 22  0  0.0 -.216314569116D-03  .704858393874D-11  .000000000000D+00
     .310000000000D+02 -.608437500000D+02  .424124809358D-08  .305464744569D+01
    -.309944152832D-05  .248176651075D-02  .122524797916D-04  .515367560959D+04
     .511200000000D+06 -.670552253723D-07 -.820786997302D-01 -.614672899246D-07
     .956087847571D+00  .140843750000D+03  .197226922456D+01 -.767710549654D-08
     .413588656199D-09  .100000000000D+01  .224900000000D+04  .000000000000D+00
     .240000000000D+01  .000000000000D+00  .139698386192D-08  .310000000000D+02
     .504000000000D+06  .400000000000D+01
15 23  2 17 22  0  0.0  .143535435200D-04  .329691829393D-11  .000000000000D+00
     .390000000000D+02 -.104718750000D+03  .475591238856D-08  .175132672881D+01
    -.547245144844D-05  .147336453665D-01  .118892639875D-04  .515368764687D+04
     .511200000000D+06 -.219792127609D-06 -.197801605539D+00 -.277534127235D-06
     .932268341838D+00  .138656250000D+03  .117913508453D+01 -.805497837932D-08
     .421446126351D-09  .100000000000D+01  .224900000000D+04  .000000000000D+00
     .240000000000D+01  .000000000000D+00 -.107102096081D-07  .390000000000D+02
     .504000000000D+06  .400000000000D+01
12 23  2 17 22  0  0.0 -.341582112014D-03 -.466116034659D-11  .000000000000D+00
     .880000000000D+02  .659375000000D+01  .466876590141D-08 -.898717178812D+00
     .450760126114D-06  .892227503937D-02  .899285078049D-05  .515365167809D+04
     .511200000000D+06 -.763684511185D-07  .210417213160D+01  .949949026108D-07
     .966043190891D+00  .214500000000D+03  .133556259310D+01 -.799319009131D-08
    -.646098341161D-09  .100000000000D+01  .224900000000D+04  .000000000000D+00
     .340000000000D+01  .000000000000D+00 -.125728547573D-07  .880000000000D+02
     .504000000000D+06  .400000000000D+01
10 23  2 17 22  0  0.0 -.251359306276D-04 -.159161572810D-11  .000000000000D+00
     .660000000000D+02 -.140593750000D+03  .404445418204D-08 -.159345881647D+01
    -.735744833946D-05  .846608402207D-02  .379607081413D-05  .515368872643D+04
     .511200000000D+06  .188127160072D-06 -.110998737079D+01 -.195577740669D-06
     .977132041174D+00  .314656250000D+03 -.244138911473D+01 -.794354516626D-08
    -.276440086268D-09  .100000000000D+01  .224900000000D+04  .000000000000D+00
     .240000000000D+01  .000000000000D+00  .232830643654D-08  .660000000000D+02
     .504000000000D+06  .400000000000D+01
31 23  2 17 22  0  0.0 -.209514051676D-03 -.102318153949D-11  .000000000000D+00
     .620000000000D+02  .244375000000D+02  .506485382863D-08 -.690126422238D+00
     .152178108692D-05  .107761815889D-01  .586919486523D-05  .515364762306D+04
     .511200000000D+06  .150874257088D-06  .100882913401D+01  .689178705215D-07
     .954427265852D+00  .258500000000D+03  .502166562967D+00 -.828963101069D-08
     .470019578202D-09  .100000000000D+01  .224900000000D+04  .000000000000D+00
     .240000000000D+01  .000000000000D+00 -.135041773319D-07  .620000000000D+02
     .504000000000D+06  .400000000000D+01
29 23  2 17 22  0  0.0 -.586668029428D-03 -.204636307899D-11  .000000000000D+00
     .660000000000D+02  .139250000000D+03  .390123393062D-08  .276250976237D+01
     .728480517864D-05  .219657574780D-02  .106543302536D-04  .515358865929D+04
     .511200000000D+06  .298023223877D-07 -.312648912161D+01  .521540641785D-07
     .978116087650D+00  .184375000000D+03  .239563057913D+01 -.769782064513D-08
    -.417874549009D-10  .100000000000D+01  .224900000000D+04  .000000000000D+00
     .240000000000D+01  .000000000000D+00 -.102445483208D-07  .660000000000D+02
     .504000000000D+06  .400000000000D+01
32 23  2 17 22  0  0.0 -.399264972657D-03 -.114823706099D-10  .000000000000D+00
     .450000000000D+02 -.821562500000D+02  .408159858639D-08 -.287585069962D+01
    -.420957803726D-05  .664020783734D-02  .118836760521D-04  .515371514511D+04
     .511200000000D+06  .223517417908D-07 -.693350901420D-01 -.856816768646D-07
     .959763604795D+00  .150062500000D+03 -.225441373788D+01 -.752745640592D-08
     .465733685392D-09  .100000000000D+01  .224900000000D+04  .000000000000D+00
     .240000000000D+01  .000000000000D+00  .465661287308D-09  .450000000000D+02
     .504000000000D+06  .400000000000D+01
16 23  2 17 22  0  0.0 -.519604422152D-03  .170530256582D-11  .000000000000D+00
     .106000000000D+03 -.114687500000D+02  .456804742037D-08 -.275429361945D+01
    -.810250639915D-06  .134032219648D-01  .919401645660D-05  .515355065727D+04
     .511200000000D+06  .484287738800D-07  .212252541321D+01 -.234693288803D-06
     .965802510145D+00  .204093750000D+03  .770516131844D+00 -.775782314447D-08
    -.577524056195D-09  .100000000000D+01  .224900000000D+04  .000000000000D+00
     .340000000000D+01  .000000000000D+00 -.102445483208D-07  .106000000000D+03
     .504000000000D+06  .400000000000D+01
14 23  2 17 22  0  0.0 -.246870331466D-04  .909494701773D-11  .000000000000D+00
     .930000000000D+02 -.115625000000D+01  .495020619596D-08 -.844569990062D+00
    -.894069671631D-07  .267191790044D-02  .850670039654D-05  .515366128349D+04
     .511200000000D+06  .689178705215D-07  .206705055023D+01  .000000000000D+00
     .949377721759D+00  .209937500000D+03 -.307966012496D+01 -.806497879588D-08
    -.572166690182D-09  .100000000000D+01  .224900000000D+04  .000000000000D+00
     .240000000000D+01  .000000000000D+00 -.791624188423D-08  .930000000000D+02
     .504000000000D+06  .400000000000D+01
8  23  2 17 22  0  0.0 -.108992680907D-03 -.181898940355D-11  .000000000000D+00
     .140000000000D+02  .111343750000D+03  .422589031101D-08  .272843077558D+01
     .579096376896D-05  .833570584655D-02  .108182430267D-04  .515366790199D+04
     .511200000000D+06 -.145286321640D-06  .305541133323D+01 -.596046447754D-07
     .960383547052D+00  .171156250000D+03  .215862410324D+00 -.770782106169D-08
    -.141434462742D-09  .100000000000D+01  .224900000000D+04  .000000000000D+00
     .240000000000D+01  .000000000000D+00  .512227416039D-08  .270000000000D+03
     .504000000000D+06  .400000000000D+01
30 23  2 17 22  0  0.0 -.529947690666D-03  .125055521494D-11  .000000000000D+00
     .560000000000D+02  .215000000000D+02  .555451708222D-08 -.242811090514D+00
     .120513141155D-05  .613323319703D-02  .570528209209D-05  .515362488556D+04
     .511200000000D+06  .298023223877D-07  .996857490201D+00  .987201929092D-07
     .935456708887D+00  .255562500000D+03 -.265239651396D+01 -.853142679674D-08
     .365015204348D-09  .100000000000D+01  .224900000000D+04  .000000000000D+00
     .240000000000D+01  .000000000000D+00  .372529029846D-08  .560000000000D+02
     .504000000000D+06  .400000000000D+01
27 23  2 17 22  0  0.0  .999672338367D-04 -.898126018001D-11  .000000000000D+00
     .850000000000D+02  .112750000000D+03  .403695386962D-08  .273503654267D+01
     .576861202717D-05  .113455888350D-01  .113975256681D-04  .515366877174D+04
     .511200000000D+06 -.782310962677D-07  .307790215971D+01 -.186264514923D-06
     .969249342634D+00  .162250000000D+03  .698632116146D+00 -.755602902465D-08
    -.118219210019D-09  .100000000000D+01  .224900000000D+04  .000000000000D+00
     .240000000000D+01  .000000000000D+00  .186264514923D-08  .850000000000D+02
     .504000000000D+06  .400000000000D+01
21 23  2 17 22  0  0.0  .154056586325D-03  .227373675443D-12  .000000000000D+00
     .810000000000D+02  .102812500000D+03  .457697636372D-08  .266684788583D+01
     .542961061001D-05  .248628873378D-01  .126659870148D-05  .515366050911D+04
     .511200000000D+06  .301748514175D-06 -.224014752316D+01  .469386577606D-06
     .961448377327D+00  .351718750000D+03 -.813566779751D+00 -.816426864599D-08
     .685742849656D-10  .100000000000D+01  .224900000000D+04  .000000000000D+00
     .240000000000D+01  .000000000000D+00 -.102445483208D-07  .810000000000D+02
     .504000000000D+06  .400000000000D+01
19 23  2 17 22  0  0.0  .279081054032D-03  .511590769747D-11  .000000000000D+00
     .580000000000D+02  .141843750000D+03  .394337854326D-08 -.145774426760D+01
     .740028917789D-05  .910612242296D-02  .979378819466D-05  .515361299324D+04
     .511200000000D+06 -.175088644028D-06 -.309574512575D+01 -.167638063431D-07
     .974916791140D+00  .201343750000D+03  .224217971240D+01 -.780961101593D-08
     .857178562071D-11  .100000000000D+01  .224900000000D+04  .000000000000D+00
     .240000000000D+01  .000000000000D+00 -.153668224812D-07  .580000000000D+02
     .504000000000D+06  .400000000000D+01
